COSMOS 2425 (716)       
1 29670U 06062A   21233.56319826  .00000057  00000-0  00000-0 0  9991
2 29670  64.8279 253.2487 0024105 340.3186  84.0159  2.13114719114068
COSMOS 2433 (720)       
1 32275U 07052A   21234.70523265 -.00000081  00000-0  00000+0 0  9994
2 32275  66.0718  14.5846 0002417 186.9068 204.0454  2.13104309107605
COSMOS 2432 (719)       
1 32276U 07052B   21234.30450970 -.00000080  00000-0  00000-0 0  9993
2 32276  66.0855  14.6949 0007767 337.4431  55.2106  2.13103547107594
COSMOS 2434 (721)       
1 32393U 07065A   21234.34947319  .00000046  00000-0  00000-0 0  9990
2 32393  64.4452 251.6509 0001183 167.8822 198.7265  2.13103120106303
COSMOS 2436 (723)       
1 32395U 07065C   21234.88531581  .00000039  00000-0  00000+0 0  9992
2 32395  64.4544 251.6872 0013988 349.9226 203.8426  2.13103017106242
COSMOS 2456 (730)       
1 36111U 09070A   21234.35813253  .00000000  00000-0  00000-0 0  9990
2 36111  64.2863 131.3224 0004017 318.4189 224.5198  2.13099468 90962
COSMOS 2457 (733)       
1 36112U 09070B   21234.17542615 -.00000001  00000-0  00000-0 0  9994
2 36112  64.2684 131.2092 0004774 165.3879   2.2923  2.13101633 90966
COSMOS 2459 (731)       
1 36400U 10007A   21233.49061429 -.00000080  00000-0  00000-0 0  9996
2 36400  65.9677  13.5417 0024970 351.8645  45.8052  2.13108676 89296
COSMOS 2461 (735)       
1 36401U 10007B   21234.39067348 -.00000082  00000-0  00000-0 0  9995
2 36401  65.9627  13.4766 0019081  13.9406 353.5400  2.13103717 89327
COSMOS 2460 (732)       
1 36402U 10007C   21234.03504381 -.00000081  00000-0  00000-0 0  9999
2 36402  65.9492  13.4433 0002585 118.5805 281.5336  2.13106572 89314
COSMOS 2464 (736)       
1 37139U 10041C   21234.22753983  .00000046  00000-0  00000-0 0  9990
2 37139  64.0452 250.8789 0026486   5.6416 127.8517  2.13100817 85370
COSMOS 2471 (701K)      
1 37372U 11009A   21234.30478336 -.00000082  00000-0  00000-0 0  9990
2 37372  65.9441  13.3634 0015245 224.3267 161.2545  2.13062206 81595
COSMOS 2476 (744)       
1 37867U 11064A   21234.48467903  .00000001  00000-0  00000-0 0  9997
2 37867  64.5798 132.5560 0020556 237.5114 305.4132  2.13101956 76318
COSMOS 2477 (745)       
1 37868U 11064B   21234.29121594 -.00000001  00000-0  00000-0 0  9991
2 37868  64.5879 132.6240 0018177 238.8117 333.9908  2.13101886 76261
COSMOS 2475 (743)       
1 37869U 11064C   21234.34546153  .00000000  00000-0  00000-0 0  9998
2 37869  64.5955 132.6268 0022140 258.1294 314.0515  2.13102214 76274
COSMOS 2485 (747)       
1 39155U 13019A   21233.47773703 -.00000008  00000-0  00000-0 0  9995
2 39155  64.7460 132.9535 0021145 233.5434 301.3609  2.13102124 64768
COSMOS 2492 (754)       
1 39620U 14012A   21234.60569921 -.00000082  00000-0  00000-0 0  9999
2 39620  65.8372  13.1489 0010889 329.4118  25.5620  2.13103280 57735
COSMOS 2500 (755)       
1 40001U 14032A   21234.37003845 -.00000082  00000-0  00000+0 0  9997
2 40001  65.7772  13.0383 0007137 182.8239 210.8401  2.13102507 55951
COSMOS 2501 (702K)      
1 40315U 14075A   21234.34942314  .00000044  00000-0  00000-0 0  9990
2 40315  63.7558 251.6574 0018909 213.0896 331.3896  2.13101416 52352
COSMOS 2514 (751)       
1 41330U 16008A   21234.51795398 -.00000083  00000-0  00000-0 0  9997
2 41330  65.5792  12.7996 0010226 199.6868 130.7059  2.13102871 43118
COSMOS 2516 (753)       
1 41554U 16032A   21234.85336098  .00000039  00000-0  00000+0 0  9996
2 41554  63.9810 251.8329 0015875 221.8674 262.5296  2.13107155 40735
COSMOS 2522 (752)       
1 42939U 17055A   21234.64079950  .00000042  00000-0  00000+0 0  9992
2 42939  64.2144 252.1450 0010106 244.8047 298.2926  2.13101993 30488
COSMOS 2527 (756)       
1 43508U 18053A   21234.09679769 -.00000002  00000-0  00000-0 0  9995
2 43508  64.9094 132.8701 0007790 233.2557 284.6190  2.13102618 24769
COSMOS 2529 (757)       
1 43687U 18086A   21234.57019240  .00000043  00000-0  00000+0 0  9997
2 43687  64.4290 252.3844 0012019 264.0145 180.4856  2.13102177 21793
COSMOS 2534 (758)       
1 44299U 19030A   21234.20030858  .00000048  00000-0  00000-0 0  9991
2 44299  64.4999 252.2547 0014569 281.8014  13.7377  2.13102042 17424
COSMOS 2544 (759)       
1 44850U 19088A   21234.49865183  .00000001  00000-0  00000-0 0  9994
2 44850  64.8935 132.7155 0012080 262.7162 247.1470  2.13102332 13207
COSMOS 2545 (760)       
1 45358U 20018A   21234.50700480 -.00000083  00000-0  00000-0 0  9994
2 45358  64.9137  13.6540 0007682 235.0356 131.1624  2.13102714 11161
